OBJECT_NAME,OBJECT_ID,EPOCH,MEAN_MOTION,ECCENTRICITY,INCLINATION,RA_OF_ASC_NODE,ARG_OF_PERICENTER,MEAN_ANOMALY,EPHEMERIS_TYPE,CLASSIFICATION_TYPE,NORAD_CAT_ID,ELEMENT_SET_NO,REV_AT_EPOCH,BSTAR,MEAN_MOTION_DOT,MEAN_MOTION_DDOT
SITRO-AIS 6 (CHIRKIN),2023-091AC,2026-06-18T19:39:38.240640,15.25959260,.0013103,97.5062,232.8447,101.4938,258.7773,0,U,57192,999,16453,.28692E-3,.7312E-4,0
SITRO-AIS 8 (ANOKHIN),2023-091AD,2026-06-18T20:24:50.073120,15.32173419,.0011756,97.5052,235.3612,94.9553,265.3030,0,U,57193,999,16470,.35856E-3,.11085E-3,0
SITRO-AIS 7 (FARTUSHNIY),2023-091AE,2026-06-18T19:44:39.112224,15.25647155,.0012964,97.5060,232.6724,102.3874,257.8815,0,U,57194,999,16452,.28252E-3,.7131E-4,0
AVION KALUGA 650,2023-091AF,2026-06-18T19:22:55.643808,15.20366357,.0011917,97.5085,229.3776,104.4627,255.7931,0,U,57195,999,16427,.19811E-3,.425E-4,0
HORS 2,2023-091AG,2026-06-18T20:42:03.175200,15.31926718,.0009286,97.5084,236.9150,82.8145,277.4152,0,U,57196,999,16478,.34354E-3,.10527E-3,0
A-SEANSAT-PG1,2023-091AH,2026-06-18T20:01:07.669920,15.37006088,.0008191,97.5077,239.4507,80.2255,279.9914,0,U,57197,999,16496,.38252E-3,.13787E-3,0
SITRO-AIS 10 (BURDAEV),2023-091AK,2026-06-18T17:52:52.745952,15.38661418,.0007405,97.5078,240.3245,75.6246,284.5820,0,U,57199,999,16500,.41932E-3,.15957E-3,0
SITRO-AIS 9 (SHCHUKIN),2023-091AM,2026-06-18T20:05:17.440224,15.38169565,.0007655,97.5076,240.1475,75.5691,284.6402,0,U,57201,999,16500,.39289E-3,.14707E-3,0
UTMN 2 (RS27S),2023-091AP,2026-06-18T19:46:56.858016,15.32084540,.000917,97.5083,237.0682,78.8611,281.3661,0,U,57203,999,16479,.32374E-3,.9964E-4,0
SITRO-AIS 12 (SMIRENNIY),2023-091AQ,2026-06-18T19:51:19.996128,15.38462458,.0007175,97.5089,240.6058,70.6160,289.5860,0,U,57204,999,16502,.39495E-3,.14925E-3,0
SITRO-AIS 11 (SHEFFER),2023-091AU,2026-06-18T20:09:59.918112,15.38888264,.0007084,97.5086,240.8667,70.4489,289.7521,0,U,57208,999,16504,.38953E-3,.14925E-3,0
H2SAT (HEINRICH HERTZ),2023-093A,2026-06-18T14:38:12.691104,1.00270922,.0000843,0.0587,104.5799,91.9025,290.6226,0,U,57213,999,1093,0,-.4E-7,0
KUZGTU 1 (RS47S),2023-091AV,2026-06-18T20:46:19.316640,15.29892478,.0012275,97.5059,234.3626,92.8486,267.4159,0,U,57217,999,16463,.32301E-3,.9294E-4,0
QIANKUN-1,2023-103B,2026-06-15T08:46:25.019040,16.08420909,.00293788,96.1468,211.3446,145.9035,214.4147,0,U,57422,999,16700,.23232943E-4,.20233E-3,.1838074E-5
FENGYUN 3F,2023-111A,2026-06-18T19:21:05.690304,14.19939396,.0001583,98.6836,239.7849,92.1786,267.9571,0,U,57490,999,14909,.43468E-4,.49E-6,0
HJ-2F,2023-116A,2026-06-18T21:29:51.293184,15.22340434,.0009693,97.3843,175.0846,47.2050,313.0000,0,U,57519,999,15901,.2818E-3,.6438E-4,0
XRISM,2023-137A,2026-06-18T18:35:19.205376,15.12478761,.0007937,31.0032,349.3195,339.5471,20.4850,0,U,57800,999,15310,.22354E-3,.4086E-4,0
METEOR-M2 4,2024-039A,2026-06-18T20:55:09.897312,14.22429672,.0007381,98.7017,129.1485,156.3184,203.8335,0,U,59051,999,11950,.20866E-4,.3E-7,0
GRBBETA,2024-128C,2026-06-18T09:57:07.269408,15.06645417,.0040487,61.9881,211.9597,134.9163,225.5227,0,U,60237,999,10645,.16766E-3,.2322E-4,0
TRANSPORTER-11 OBJECT A,2024-149A,2026-06-18T17:17:01.443840,15.32926393,.0002987,97.3730,249.6453,187.7120,172.4076,0,U,60468,999,10229,.21369E-3,.6718E-4,0
WARATAH SEED-1,2024-149B,2026-06-18T19:19:07.094208,15.35978933,.0001643,97.3688,250.3810,173.3470,186.7796,0,U,60469,999,10236,.29885E-3,.1039E-3,0
PHISAT 2,2024-149C,2026-06-18T21:03:15.091200,15.31082993,.0001256,97.3756,249.0842,170.7906,189.3359,0,U,60470,999,10225,.1845E-3,.5463E-4,0
LEMUR-2-TOMATOKECHUP,2024-149D,2026-06-18T16:05:57.229728,15.36059233,.0001604,97.3799,251.7214,173.2707,186.8559,0,U,60471,999,10239,.25267E-3,.8793E-4,0
CONNECTA IOT-1,2024-149E,2026-06-18T17:42:26.309664,15.23550155,.0000353,97.3753,246.0031,248.8204,111.2995,0,U,60472,999,10203,.13566E-3,.3172E-4,0
LOPEN,2024-149F,2026-06-18T18:07:21.178272,15.39724329,.0000984,97.3776,253.1352,180.9085,179.2159,0,U,60473,999,10250,.29652E-3,.11644E-3,0
ROCK,2024-149G,2026-06-18T17:48:01.513152,15.39719060,.0001263,97.3773,253.1375,187.1183,173.0045,0,U,60474,999,10250,.29675E-3,.11651E-3,0
CONNECTA IOT-3,2024-149H,2026-06-18T16:38:37.546368,15.23562310,.0001447,97.3734,245.7120,241.4549,118.6542,0,U,60475,999,10203,.1398E-3,.3272E-4,0
QUBE,2024-149J,2026-06-18T18:58:04.022112,15.47245143,.000217,97.3779,256.2546,187.8898,172.2318,0,U,60476,999,10271,.34873E-3,.17679E-3,0
WREN-1,2024-149L,2026-06-18T18:10:13.508256,15.41605263,.000337,97.3765,253.8863,240.9652,119.1257,0,U,60478,999,10256,.37611E-3,.15751E-3,0
